FLOCK 1C-7              
1 40026U 14033S   17345.75352435  .00000151  00000-0  21666-4 0  9999
2 40026  97.9179 258.9456 0012402  78.5074 281.7523 14.89780869188987
